*******************************************************************************
 Revised: June 21, 2016                 Mars                            499 / 4
 
 PHYSICAL DATA (updated 2019-Oct-29):
  Vol. mean radius (km) = 3389.92+-0.04   Density (g/cm^3)      =  3.933(5+-4)
  Mass x10^23 (kg)      =    6.4171       Flattening, f         =  1/169.779
  Volume (x10^10 km^3)  =   16.318        Equatorial radius (km)=  3396.19
  Sidereal rot. period  =   24.622962 hr  Sid. rot. rate, rad/s =  0.0000708822 
  Mean solar day (sol)  =   88775.24415 s Polar gravity m/s^2   =  3.758
  Core radius (km)      = ~1700           Equ. gravity  m/s^2   =  3.71
  Geometric Albedo      =    0.150                                              

  GM (km^3/s^2)         = 42828.375214    Mass ratio (Sun/Mars) = 3098703.59
  GM 1-sigma (km^3/s^2) = +- 0.00028      Mass of atmosphere, kg= ~ 2.5 x 10^16
  Mean temperature (K)  =  210            Atmos. pressure (bar) =    0.0056 
  Obliquity to orbit    =   25.19 deg     Max. angular diam.    =  17.9"
  Mean sidereal orb per =    1.88081578 y Visual mag. V(1,0)    =  -1.52
  Mean sidereal orb per =  686.98 d       Orbital speed,  km/s  =  24.13
  Hill's sphere rad. Rp =  319.8          Escape speed, km/s    =   5.027
                                 Perihelion  Aphelion    Mean
  Solar Constant (W/m^2)         717         493         589
  Maximum Planetary IR (W/m^2)   470         315         390
  Minimum Planetary IR (W/m^2)    30          30          30
*******************************************************************************
 
 
*******************************************************************************
Ephemeris / WWW_USER Thu Sep  2 09:28:41 2021 Pasadena, USA      / Horizons
*******************************************************************************
Target body name: Mars (499)                      {source: mar097}
Center body name: Sun (10)                        {source: mar097}
Center-site name: BODY CENTER
*******************************************************************************
Start time      : A.D. 2018-May-06 00:00:00.0000 TDB
Stop  time      : A.D. 2018-Nov-26 00:00:00.0000 TDB
Step-size       : 1440 minutes
*******************************************************************************
Center geodetic : 0.00000000,0.00000000,0.0000000 {E-lon(deg),Lat(deg),Alt(km)}
Center cylindric: 0.00000000,0.00000000,0.0000000 {E-lon(deg),Dxy(km),Dz(km)}
Center radii    : 696000.0 x 696000.0 x 696000.0 k{Equator, meridian, pole}    
Output units    : KM-S
Output type     : GEOMETRIC cartesian states
Output format   : 3 (position, velocity, LT, range, range-rate)
Reference frame : Ecliptic of J2000.0
*******************************************************************************
            JDTDB,            Calendar Date (TDB),                      X,                      Y,                      Z,                     VX,                     VY,                     VZ,                     LT,                     RG,                     RR,
**************************************************************************************************************************************************************************************************************************************************************************
$$SOE
2458412.500000000, A.D. 2018-Oct-21 00:00:00.0000,  2.077330803432097E+08, -7.310640546166681E+06, -5.250504629321682E+06,  1.777922510782297E+00,  2.628472627558746E+01,  5.071485878830995E-01,  6.935730937017828E+02,  2.079279825635218E+08,  8.392922682226778E-01,
2458413.500000000, A.D. 2018-Oct-22 00:00:00.0000,  2.078752472201505E+08, -5.039278912629910E+06, -5.206398571870872E+06,  1.512994067074819E+00,  2.629260524492937E+01,  5.138144014854813E-01,  6.938182839690388E+02,  2.080014887564201E+08,  8.622203767533730E-01,
2458414.500000000, A.D. 2018-Oct-23 00:00:00.0000,  2.079945291163919E+08, -2.767361920000284E+06, -5.161719333098680E+06,  1.248183734496521E+00,  2.629758273674712E+01,  5.204165256548219E-01,  6.940700649929212E+02,  2.080769708084476E+08,  8.850292961127618E-01,
2458415.500000000, A.D. 2018-Oct-24 00:00:00.0000,  2.080909378192267E+08, -4.951400181463368E+05, -5.116472450277691E+06,  9.835280760644546E-01,  2.629966435444414E+01,  5.269541852455060E-01,  6.943284020065220E+02,  2.081544182967474E+08,  9.077161004257930E-01,
2458416.500000000, A.D. 2018-Oct-25 00:00:00.0000,  2.081644882684333E+08,  1.777136852173748E+06, -5.070663527381636E+06,  7.190635009275650E-01,  2.629885625476232E+01,  5.334266104049643E-01,  6.945932594078106E+02,  2.082338205480992E+08,  9.302779200595420E-01,
2458417.500000000, A.D. 2018-Oct-26 00:00:00.0000,  2.082151985406666E+08,  4.049219306914983E+06, -5.024298233677872E+06,  4.548262464405136E-01,  2.629516515063015E+01,  5.398330408525833E-01,  6.948646007697613E+02,  2.083151666419554E+08,  9.527119345949691E-01,
2458418.500000000, A.D. 2018-Oct-27 00:00:00.0000,  2.082430898330780E+08,  6.320858565999044E+06, -4.977382302342922E+06,  1.908523455251524E-01,  2.628859831076216E+01,  5.461727377810259E-01,  6.951423888510276E+02,  2.083984454136413E+08,  9.750153511576196E-01,
2458419.500000000, A.D. 2018-Oct-28 00:00:00.0000,  2.082481864461335E+08,  8.591806499937451E+06, -4.929921529097081E+06, -7.282239336999928E-02,  2.627916354897645E+01,  5.524449893368644E-01,  6.954265856069966E+02,  2.084836454576689E+08,  9.971853952289232E-01,
2458420.500000000, A.D. 2018-Oct-29 00:00:00.0000,  2.082305157654902E+08,  1.086181567575710E+07, -4.881921770797075E+06, -3.361623860330425E-01,  2.626686920734645E+01,  5.586491053947213E-01,  6.957171522006479E+02,  2.085707551309923E+08,  1.019219321143207E+00,
2458421.500000000, A.D. 2018-Oct-30 00:00:00.0000,  2.081901082429296E+08,  1.313063940242422E+07, -4.833388943962669E+06, -5.991322696063875E-01,  2.625172413807877E+01,  5.647844105315869E-01,  6.960140490131457E+02,  2.086597625561834E+08,  1.041114424271248E+00,
2458422.500000000, A.D. 2018-Oct-31 00:00:00.0000,  2.081269973765320E+08,  1.539803177589390E+07, -4.784329023303214E+06, -8.616969080672291E-01,  2.623373769184379E+01,  5.708502413409935E-01,  6.963172356547690E+02,  2.087506556247084E+08,  1.062868044237812E+00,
2458423.500000000, A.D. 2018-Nov-01 00:00:00.0000,  2.080412196902470E+08,  1.766374772365606E+07, -4.734748040319622E+06, -1.123821399609284E+00,  2.621291972212308E+01,  5.768459460189472E-01,  6.966266709766423E+02,  2.088434220004449E+08,  1.084477566980073E+00,
2458424.500000000, A.D. 2018-Nov-02 00:00:00.0000,  2.079328147127773E+08,  1.992754304860613E+07, -4.684652081950748E+06, -1.385471083078421E+00,  2.618928060131420E+01,  5.827708849065729E-01,  6.969423130828910E+02,  2.089380491233254E+08,  1.105940429315436E+00,
2458425.500000000, A.D. 2018-Nov-03 00:00:00.0000,  2.078018249555671E+08,  2.218917447226966E+07, -4.634047289154880E+06, -1.646611551861212E+00,  2.616283122445438E+01,  5.886244344327203E-01,  6.972641193424391E+02,  2.090345242128752E+08,  1.127254115945014E+00,
2458426.500000000, A.D. 2018-Nov-04 00:00:00.0000,  2.076482958898709E+08,  2.444839967752317E+07, -4.582939855389263E+06, -1.907208674331051E+00,  2.613358298681339E+01,  5.944059924427378E-01,  6.975920464003524E+02,  2.091328342716117E+08,  1.148416147371387E+00,
2458427.500000000, A.D. 2018-Nov-05 00:00:00.0000,  2.074722759231225E+08,  2.670497735081422E+07, -4.531336025080426E+06, -2.167228609812164E+00,  2.610154775657536E+01,  6.001149805431112E-01,  6.979260501894297E+02,  2.092329660885205E+08,  1.169424070598238E+00,
2458428.500000000, A.D. 2018-Nov-06 00:00:00.0000,  2.072738163747716E+08,  2.895866722370071E+07, -4.479242092172741E+06, -2.426637814432209E+00,  2.606673786410411E+01,  6.057508426170877E-01,  6.982660859424885E+02,  2.093349062427379E+08,  1.190275460781427E+00,
2458429.500000000, A.D. 2018-Nov-07 00:00:00.0000,  2.070529714514986E+08,  3.120923011356924E+07, -4.426664398719838E+06, -2.685403036905962E+00,  2.602916610064666E+01,  6.113130393657471E-01,  6.986121082048963E+02,  2.094386411073078E+08,  1.210967933875008E+00,
2458430.500000000, A.D. 2018-Nov-08 00:00:00.0000,  2.068097982216612E+08,  3.345642796362671E+07, -4.373609333433801E+06, -2.943491310397424E+00,  2.598884571404960E+01,  6.168010407190696E-01,  6.989640708467999E+02,  2.095441568528483E+08,  1.231499162785347E+00,
2458431.500000000, A.D. 2018-Nov-09 00:00:00.0000,  2.065443565890231E+08,  3.570002388238276E+07, -4.320083330186864E+06, -3.200869954735073E+00,  2.594579040553067E+01,  6.222143232523454E-01,  6.993219270752637E+02,  2.096514394511901E+08,  1.251866883242977E+00,
2458432.500000000, A.D. 2018-Nov-10 00:00:00.0000,  2.062567092659402E+08,  3.793978218265451E+07, -4.266092866533285E+06, -3.457506598038008E+00,  2.590001433278871E+01,  6.275523779804626E-01,  6.996856294468988E+02,  2.097604746791629E+08,  1.272068881528259E+00,
2458433.500000000, A.D. 2018-Nov-11 00:00:00.0000,  2.059469217460423E+08,  4.017546841986626E+07, -4.211644462275993E+06, -3.713369203620130E+00,  2.585153210757264E+01,  6.328147211290460E-01,  7.000551298809398E+02,  2.098712481225162E+08,  1.292102976519355E+00,
2458434.500000000, A.D. 2018-Nov-12 00:00:00.0000,  2.056150622762736E+08,  4.240684942945033E+07, -4.156744678022195E+06, -3.968426078916587E+00,  2.580035877882290E+01,  6.380008952469094E-01,  7.004303796721218E+02,  2.099837451797786E+08,  1.311967016982018E+00,
2458435.500000000, A.D. 2018-Nov-13 00:00:00.0000,  2.052612018282212E+08,  4.463369336344784E+07, -4.101400113677867E+06, -4.222645869841125E+00,  2.574650980929191E+01,  6.431104622493926E-01,  7.008113295030734E+02,  2.100979510659743E+08,  1.331658891130933E+00,
